[
    {
        "Altitude(m)": 568688.9195552416,
        "Argument of Periapsis(deg)": 0.019868973332140504,
        "Eccentricity": 0.0,
        "Inclination(deg)": 53.0,
        "Latitude(deg)": -45.25743110953037,
        "Longitude(deg)": 93.48892913352971,
        "Mean Anomaly(deg)": -62.452421397267194,
        "RAAN(deg)": 244.9704301055841,
        "Satellite Name": "Starlink Shell 1 1094",
        "Satellite Number": 1094,
        "Semi-Major Axis(m)": 6931778.249405717,
        "Time(s)": 570
    },
    {
        "Altitude(m)": 568553.5930251882,
        "Argument of Periapsis(deg)": 0.02021755181165174,
        "Eccentricity": 0.0,
        "Inclination(deg)": 53.0,
        "Latitude(deg)": -44.927817013204425,
        "Longitude(deg)": 94.19845728912226,
        "Mean Anomaly(deg)": -61.825590193710525,
        "RAAN(deg)": 244.9699113355066,
        "Satellite Name": "Starlink Shell 1 1094",
        "Satellite Number": 1094,
        "Semi-Major Axis(m)": 6931778.249405717,
        "Time(s)": 580
    },
    {
        "Altitude(m)": 568416.0903883756,
        "Argument of Periapsis(deg)": 0.020566130291162974,
        "Eccentricity": 0.0,
        "Inclination(deg)": 53.0,
        "Latitude(deg)": -44.59329887212839,
        "Longitude(deg)": 94.89940464276472,
        "Mean Anomaly(deg)": -61.198758990153806,
        "RAAN(deg)": 244.96939256542916,
        "Satellite Name": "Starlink Shell 1 1094",
        "Satellite Number": 1094,
        "Semi-Major Axis(m)": 6931778.249405717,
        "Time(s)": 590
    },
    {
        "Altitude(m)": 568276.4657830412,
        "Argument of Periapsis(deg)": 0.020914708770674213,
        "Eccentricity": 0.0,
        "Inclination(deg)": 53.0,
        "Latitude(deg)": -44.25398716064179,
        "Longitude(deg)": 95.59184589376656,
        "Mean Anomaly(deg)": -60.571927786597136,
        "RAAN(deg)": 244.96887379535167,
        "Satellite Name": "Starlink Shell 1 1094",
        "Satellite Number": 1094,
        "Semi-Major Axis(m)": 6931778.249405717,
        "Time(s)": 600
    },
    {
        "Altitude(m)": 568134.7741445155,
        "Argument of Periapsis(deg)": 0.021263287250185448,
        "Eccentricity": 0.0,
        "Inclination(deg)": 53.0,
        "Latitude(deg)": -43.909990732794185,
        "Longitude(deg)": 96.2758612099972,
        "Mean Anomaly(deg)": -59.94509658304044,
        "RAAN(deg)": 244.96835502527418,
        "Satellite Name": "Starlink Shell 1 1094",
        "Satellite Number": 1094,
        "Semi-Major Axis(m)": 6931778.249405717,
        "Time(s)": 610
    },
    {
        "Altitude(m)": 567991.0711810911,
        "Argument of Periapsis(deg)": 0.021611865729696686,
        "Eccentricity": 0.0,
        "Inclination(deg)": 53.0,
        "Latitude(deg)": -43.56141677370442,
        "Longitude(deg)": 96.95153628371945,
        "Mean Anomaly(deg)": -59.31826537948361,
        "RAAN(deg)": 244.96783625519672,
        "Satellite Name": "Starlink Shell 1 1094",
        "Satellite Number": 1094,
        "Semi-Major Axis(m)": 6931778.249405717,
        "Time(s)": 620
    },
    {
        "Altitude(m)": 567845.4133494729,
        "Argument of Periapsis(deg)": 0.02196044420920792,
        "Eccentricity": 0.0,
        "Inclination(deg)": 53.0,
        "Latitude(deg)": -43.20837075811929,
        "Longitude(deg)": 97.61896072370892,
        "Mean Anomaly(deg)": -58.69143417592694,
        "RAAN(deg)": 244.96731748511928,
        "Satellite Name": "Starlink Shell 1 1094",
        "Satellite Number": 1094,
        "Semi-Major Axis(m)": 6931778.249405717,
        "Time(s)": 630
    },
    {
        "Altitude(m)": 567697.8578299276,
        "Argument of Periapsis(deg)": 0.02230902268871916,
        "Eccentricity": 0.0,
        "Inclination(deg)": 53.0,
        "Latitude(deg)": -42.85095641575358,
        "Longitude(deg)": 98.27822898656254,
        "Mean Anomaly(deg)": -58.064602972370274,
        "RAAN(deg)": 244.96679871504176,
        "Satellite Name": "Starlink Shell 1 1094",
        "Satellite Number": 1094,
        "Semi-Major Axis(m)": 6931778.249405717,
        "Time(s)": 640
    },
    {
        "Altitude(m)": 567548.4625010785,
        "Argument of Periapsis(deg)": 0.022657601168230398,
        "Eccentricity": 0.0,
        "Inclination(deg)": 53.0,
        "Latitude(deg)": -42.48927570300066,
        "Longitude(deg)": 98.92943880461058,
        "Mean Anomaly(deg)": -57.43777176881345,
        "RAAN(deg)": 244.96627994496433,
        "Satellite Name": "Starlink Shell 1 1094",
        "Satellite Number": 1094,
        "Semi-Major Axis(m)": 6931778.249405717,
        "Time(s)": 650
    },
    {
        "Altitude(m)": 567397.2859143822,
        "Argument of Periapsis(deg)": 0.023006179647741636,
        "Eccentricity": 0.0,
        "Inclination(deg)": 53.0,
        "Latitude(deg)": -42.12342878060522,
        "Longitude(deg)": 99.57269131303377,
        "Mean Anomaly(deg)": -56.810940565256765,
        "RAAN(deg)": 244.9657611748868,
        "Satellite Name": "Starlink Shell 1 1094",
        "Satellite Number": 1094,
        "Semi-Major Axis(m)": 6931778.249405717,
        "Time(s)": 660
    },
    {
        "Altitude(m)": 567244.3872682864,
        "Argument of Periapsis(deg)": 0.023354758127252868,
        "Eccentricity": 0.0,
        "Inclination(deg)": 53.0,
        "Latitude(deg)": -41.75351399689932,
        "Longitude(deg)": 100.20809119526982,
        "Mean Anomaly(deg)": -56.18410936170008,
        "RAAN(deg)": 244.96524240480932,
        "Satellite Name": "Starlink Shell 1 1094",
        "Satellite Number": 1094,
        "Semi-Major Axis(m)": 6931778.249405717,
        "Time(s)": 670
    },
    {
        "Altitude(m)": 567089.8263820885,
        "Argument of Periapsis(deg)": 0.023703336606764106,
        "Eccentricity": 0.0,
        "Inclination(deg)": 53.0,
        "Latitude(deg)": -41.379627876213625,
        "Longitude(deg)": 100.83574533377038,
        "Mean Anomaly(deg)": -55.55727815814336,
        "RAAN(deg)": 244.9647236347319,
        "Satellite Name": "Starlink Shell 1 1094",
        "Satellite Number": 1094,
        "Semi-Major Axis(m)": 6931778.249405717,
        "Time(s)": 680
    },
    {
        "Altitude(m)": 566933.6636695167,
        "Argument of Periapsis(deg)": 0.024051915086275345,
        "Eccentricity": 0.0,
        "Inclination(deg)": 53.0,
        "Latitude(deg)": -41.00186511208549,
        "Longitude(deg)": 101.45576299169022,
        "Mean Anomaly(deg)": -54.9304469545867,
        "RAAN(deg)": 244.96420486465442,
        "Satellite Name": "Starlink Shell 1 1094",
        "Satellite Number": 1094,
        "Semi-Major Axis(m)": 6931778.249405717,
        "Time(s)": 690
    },
    {
        "Altitude(m)": 566775.9601119913,
        "Argument of Periapsis(deg)": 0.024400493565786583,
        "Eccentricity": 0.0,
        "Inclination(deg)": 53.0,
        "Latitude(deg)": -40.620318564899904,
        "Longitude(deg)": 102.06825601238475,
        "Mean Anomaly(deg)": -54.30361575102993,
        "RAAN(deg)": 244.96368609457693,
        "Satellite Name": "Starlink Shell 1 1094",
        "Satellite Number": 1094,
        "Semi-Major Axis(m)": 6931778.249405717,
        "Time(s)": 700
    },
    {
        "Altitude(m)": 566616.777231671,
        "Argument of Periapsis(deg)": 0.024749072045297815,
        "Eccentricity": 0.0,
        "Inclination(deg)": 53.0,
        "Latitude(deg)": -40.23507926361203,
        "Longitude(deg)": 102.67333752351693,
        "Mean Anomaly(deg)": -53.67678454747328,
        "RAAN(deg)": 244.9631673244995,
        "Satellite Name": "Starlink Shell 1 1094",
        "Satellite Number": 1094,
        "Semi-Major Axis(m)": 6931778.249405717,
        "Time(s)": 710
    },
    {
        "Altitude(m)": 566456.1770641953,
        "Argument of Periapsis(deg)": 0.025097650524809053,
        "Eccentricity": 0.0,
        "Inclination(deg)": 53.0,
        "Latitude(deg)": -39.84623641121456,
        "Longitude(deg)": 103.27112217112739,
        "Mean Anomaly(deg)": -53.0499533439164,
        "RAAN(deg)": 244.962648554422,
        "Satellite Name": "Starlink Shell 1 1094",
        "Satellite Number": 1094,
        "Semi-Major Axis(m)": 6931778.249405717,
        "Time(s)": 720
    },
    {
        "Altitude(m)": 566294.2221312105,
        "Argument of Periapsis(deg)": 0.02544622900432029,
        "Eccentricity": 0.0,
        "Inclination(deg)": 53.0,
        "Latitude(deg)": -39.453877393630684,
        "Longitude(deg)": 103.86172637034653,
        "Mean Anomaly(deg)": -52.42312214035974,
        "RAAN(deg)": 244.9621297843445,
        "Satellite Name": "Starlink Shell 1 1094",
        "Satellite Number": 1094,
        "Semi-Major Axis(m)": 6931778.249405717,
        "Time(s)": 730
    },
    {
        "Altitude(m)": 566130.9754126591,
        "Argument of Periapsis(deg)": 0.02579480748383153,
        "Eccentricity": 0.0,
        "Inclination(deg)": 53.0,
        "Latitude(deg)": -39.05808779172278,
        "Longitude(deg)": 104.44526705939495,
        "Mean Anomaly(deg)": -51.79629093680312,
        "RAAN(deg)": 244.96161101426705,
        "Satellite Name": "Starlink Shell 1 1094",
        "Satellite Number": 1094,
        "Semi-Major Axis(m)": 6931778.249405717,
        "Time(s)": 740
    },
    {
        "Altitude(m)": 565966.5003188286,
        "Argument of Periapsis(deg)": 0.026143385963342765,
        "Eccentricity": 0.0,
        "Inclination(deg)": 53.0,
        "Latitude(deg)": -38.658951396130895,
        "Longitude(deg)": 105.02186198208274,
        "Mean Anomaly(deg)": -51.16945973324635,
        "RAAN(deg)": 244.96109224418956,
        "Satellite Name": "Starlink Shell 1 1094",
        "Satellite Number": 1094,
        "Semi-Major Axis(m)": 6931778.249405717,
        "Time(s)": 750
    }
]